[{"OBJECT_NAME":"STARLINK-5353","OBJECT_ID":"2023-099AU","EPOCH":"2026-03-09T12:33:38.453472","MEAN_MOTION":15.02535385,"ECCENTRICITY":0.0001278,"INCLINATION":43.0027,"RA_OF_ASC_NODE":236.6608,"ARG_OF_PERICENTER":270.4242,"MEAN_ANOMALY":89.6454,"EPHEMERIS_TYPE":0,"CLASSIFICATION_TYPE":"U","NORAD_CAT_ID":57370,"ELEMENT_SET_NO":999,"REV_AT_EPOCH":14624,"BSTAR":3.7333287e-5,"MEAN_MOTION_DOT":3.01e-6,"MEAN_MOTION_DDOT":0},{"OBJECT_NAME":"ION SCV-014","OBJECT_ID":"2025-009X","EPOCH":"2026-03-09T17:13:35.291712","MEAN_MOTION":15.0488465,"ECCENTRICITY":0.00064503,"INCLINATION":97.4923,"RA_OF_ASC_NODE":144.8636,"ARG_OF_PERICENTER":112.6479,"MEAN_ANOMALY":247.543,"EPHEMERIS_TYPE":0,"CLASSIFICATION_TYPE":"U","NORAD_CAT_ID":62630,"ELEMENT_SET_NO":999,"REV_AT_EPOCH":6302,"BSTAR":0.0001322874,"MEAN_MOTION_DOT":1.812e-5,"MEAN_MOTION_DDOT":0}]
