STARLINK-5353           
1 57370U 23099AU  26068.52336173  .00000301  00000+0  37333-4 0  9993
2 57370  43.0027 236.6608 0001278 270.4242  89.6454 15.02535385146240
ION SCV-014             
1 62630U 25009X   26068.71776957  .00001812  00000+0  13229-3 0  9995
2 62630  97.4923 144.8636 0006450 112.6479 247.5430 15.04884649 63025
